[
  {
    "CCSDS_OMM_VERS": "2.0",
    "COMMENT": "GENERATED VIA SPACE-TRACK.ORG API",
    "CREATION_DATE": "2021-12-04T06:26:10",
    "ORIGINATOR": "18 SPCS",
    "OBJECT_NAME": "THOR ABLESTAR DEB",
    "OBJECT_ID": "1963-049E",
    "CENTER_NAME": "EARTH",
    "REF_FRAME": "TEME",
    "TIME_SYSTEM": "UTC",
    "MEAN_ELEMENT_THEORY": "SGP4",
    "EPOCH": "2021-12-04T02:21:35.153856",
    "MEAN_MOTION": "13.71990980",
    "ECCENTRICITY": "0.00321590",
    "INCLINATION": "89.9179",
    "RA_OF_ASC_NODE": "93.0660",
    "ARG_OF_PERICENTER": "92.5985",
    "MEAN_ANOMALY": "31.4789",
    "EPHEMERIS_TYPE": "0",
    "CLASSIFICATION_TYPE": "U",
    "NORAD_CAT_ID": "715",
    "ELEMENT_SET_NO": "999",
    "REV_AT_EPOCH": "87650",
    "BSTAR": "0.00043676000000",
    "MEAN_MOTION_DOT": "0.00000408",
    "MEAN_MOTION_DDOT": "0.0000000000000",
    "SEMIMAJOR_AXIS": "7370.569",
    "PERIOD": "104.957",
    "APOAPSIS": "1016.137",
    "PERIAPSIS": "968.731",
    "OBJECT_TYPE": "DEBRIS",
    "RCS_SIZE": "SMALL",
    "COUNTRY_CODE": "US",
    "LAUNCH_DATE": "1963-12-05",
    "SITE": "AFWTR",
    "DECAY_DATE": null,
    "FILE": "3231964",
    "GP_ID": "191041379",
    "TLE_LINE0": "0 THOR ABLESTAR DEB",
    "TLE_LINE1": "1   715U 63049E   21338.09832354  .00000408  00000-0  43676-3 0  9997",
    "TLE_LINE2": "2   715  89.9179  93.0660 0032159  92.5985  31.4789 13.71990980876505"
  },
  {
    "CCSDS_OMM_VERS": "2.0",
    "COMMENT": "GENERATED VIA SPACE-TRACK.ORG API",
    "CREATION_DATE": "2021-12-03T17:32:05",
    "ORIGINATOR": "18 SPCS",
    "OBJECT_NAME": "TIROS 8",
    "OBJECT_ID": "1963-054A",
    "CENTER_NAME": "EARTH",
    "REF_FRAME": "TEME",
    "TIME_SYSTEM": "UTC",
    "MEAN_ELEMENT_THEORY": "SGP4",
    "EPOCH": "2021-12-03T11:43:25.058208",
    "MEAN_MOTION": "14.69645162",
    "ECCENTRICITY": "0.00167980",
    "INCLINATION": "58.4968",
    "RA_OF_ASC_NODE": "35.0669",
    "ARG_OF_PERICENTER": "290.9999",
    "MEAN_ANOMALY": "68.9242",
    "EPHEMERIS_TYPE": "0",
    "CLASSIFICATION_TYPE": "U",
    "NORAD_CAT_ID": "716",
    "ELEMENT_SET_NO": "999",
    "REV_AT_EPOCH": "7192",
    "BSTAR": "0.00003571500000",
    "MEAN_MOTION_DOT": "0.00000031",
    "MEAN_MOTION_DDOT": "0.0000000000000",
    "SEMIMAJOR_AXIS": "7040.338",
    "PERIOD": "97.983",
    "APOAPSIS": "674.029",
    "PERIAPSIS": "650.377",
    "OBJECT_TYPE": "PAYLOAD",
    "RCS_SIZE": "MEDIUM",
    "COUNTRY_CODE": "US",
    "LAUNCH_DATE": "1963-12-21",
    "SITE": "AFWTR",
    "DECAY_DATE": null,
    "FILE": "3231740",
    "GP_ID": "190991361",
    "TLE_LINE0": "0 TIROS 8",
    "TLE_LINE1": "1 00716U 63054A   21337.48848447  .00000031  00000-0  35715-4 0  9994",
    "TLE_LINE2": "2 00716  58.4968  35.0669 0016798 290.9999  68.9242 14.69645162 71927"
  },
  {
    "CCSDS_OMM_VERS": "2.0",
    "COMMENT": "GENERATED VIA SPACE-TRACK.ORG API",
    "CREATION_DATE": "2021-12-04T02:39:20",
    "ORIGINATOR": "18 SPCS",
    "OBJECT_NAME": "DELTA 1 DEB",
    "OBJECT_ID": "1963-054C",
    "CENTER_NAME": "EARTH",
    "REF_FRAME": "TEME",
    "TIME_SYSTEM": "UTC",
    "MEAN_ELEMENT_THEORY": "SGP4",
    "EPOCH": "2021-12-03T19:40:40.184256",
    "MEAN_MOTION": "14.47172497",
    "ECCENTRICITY": "0.01161230",
    "INCLINATION": "58.4724",
    "RA_OF_ASC_NODE": "276.6630",
    "ARG_OF_PERICENTER": "142.6566",
    "MEAN_ANOMALY": "218.2605",
    "EPHEMERIS_TYPE": "0",
    "CLASSIFICATION_TYPE": "U",
    "NORAD_CAT_ID": "720",
    "ELEMENT_SET_NO": "999",
    "REV_AT_EPOCH": "4146",
    "BSTAR": "0.00003380400000",
    "MEAN_MOTION_DOT": "-0.00000037",
    "MEAN_MOTION_DDOT": "0.0000000000000",
    "SEMIMAJOR_AXIS": "7113.035",
    "PERIOD": "99.504",
    "APOAPSIS": "817.499",
    "PERIAPSIS": "652.302",
    "OBJECT_TYPE": "DEBRIS",
    "RCS_SIZE": "SMALL",
    "COUNTRY_CODE": "US",
    "LAUNCH_DATE": "1963-12-21",
    "SITE": "AFWTR",
    "DECAY_DATE": null,
    "FILE": "3231910",
    "GP_ID": "191017546",
    "TLE_LINE0": "0 DELTA 1 DEB",
    "TLE_LINE1": "1 00720U 63054C   21337.81990954 -.00000037  00000-0  33804-4 0  9991",
    "TLE_LINE2": "2 00720  58.4724 276.6630 0116123 142.6566 218.2605 14.47172497 41460"
  },
  {
    "CCSDS_OMM_VERS": "2.0",
    "COMMENT": "GENERATED VIA SPACE-TRACK.ORG API",
    "CREATION_DATE": "2021-12-04T02:39:20",
    "ORIGINATOR": "18 SPCS",
    "OBJECT_NAME": "SCOUT X-4 R\/B",
    "OBJECT_ID": "1963-053B",
    "CENTER_NAME": "EARTH",
    "REF_FRAME": "TEME",
    "TIME_SYSTEM": "UTC",
    "MEAN_ELEMENT_THEORY": "SGP4",
    "EPOCH": "2021-12-03T14:49:17.065632",
    "MEAN_MOTION": "12.53778219",
    "ECCENTRICITY": "0.10880840",
    "INCLINATION": "78.6058",
    "RA_OF_ASC_NODE": "302.7233",
    "ARG_OF_PERICENTER": "133.5603",
    "MEAN_ANOMALY": "236.1215",
    "EPHEMERIS_TYPE": "0",
    "CLASSIFICATION_TYPE": "U",
    "NORAD_CAT_ID": "721",
    "ELEMENT_SET_NO": "999",
    "REV_AT_EPOCH": "64235",
    "BSTAR": "0.00002176700000",
    "MEAN_MOTION_DOT": "0.00000047",
    "MEAN_MOTION_DDOT": "0.0000000000000",
    "SEMIMAJOR_AXIS": "7826.868",
    "PERIOD": "114.853",
    "APOAPSIS": "2300.362",
    "PERIAPSIS": "597.104",
    "OBJECT_TYPE": "ROCKET BODY",
    "RCS_SIZE": "MEDIUM",
    "COUNTRY_CODE": "US",
    "LAUNCH_DATE": "1963-12-19",
    "SITE": "AFWTR",
    "DECAY_DATE": null,
    "FILE": "3231910",
    "GP_ID": "191017798",
    "TLE_LINE0": "0 SCOUT X-4 R\/B",
    "TLE_LINE1": "1 00721U 63053B   21337.61755863  .00000047  00000-0  21767-4 0  9992",
    "TLE_LINE2": "2 00721  78.6058 302.7233 1088084 133.5603 236.1215 12.53778219642351"
  },
  {
    "CCSDS_OMM_VERS": "2.0",
    "COMMENT": "GENERATED VIA SPACE-TRACK.ORG API",
    "CREATION_DATE": "2021-12-03T17:32:05",
    "ORIGINATOR": "18 SPCS",
    "OBJECT_NAME": "SCOUT X-4 DEB",
    "OBJECT_ID": "1963-053E",
    "CENTER_NAME": "EARTH",
    "REF_FRAME": "TEME",
    "TIME_SYSTEM": "UTC",
    "MEAN_ELEMENT_THEORY": "SGP4",
    "EPOCH": "2021-12-03T04:39:25.385184",
    "MEAN_MOTION": "14.19421313",
    "ECCENTRICITY": "0.03828930",
    "INCLINATION": "78.5944",
    "RA_OF_ASC_NODE": "152.1112",
    "ARG_OF_PERICENTER": "269.5913",
    "MEAN_ANOMALY": "86.1381",
    "EPHEMERIS_TYPE": "0",
    "CLASSIFICATION_TYPE": "U",
    "NORAD_CAT_ID": "724",
    "ELEMENT_SET_NO": "999",
    "REV_AT_EPOCH": "77980",
    "BSTAR": "0.00050418000000",
    "MEAN_MOTION_DOT": "0.00002220",
    "MEAN_MOTION_DDOT": "0.0000000000000",
    "SEMIMAJOR_AXIS": "7205.448",
    "PERIOD": "101.450",
    "APOAPSIS": "1103.204",
    "PERIAPSIS": "551.421",
    "OBJECT_TYPE": "DEBRIS",
    "RCS_SIZE": "SMALL",
    "COUNTRY_CODE": "US",
    "LAUNCH_DATE": "1963-12-19",
    "SITE": "AFWTR",
    "DECAY_DATE": null,
    "FILE": "3231740",
    "GP_ID": "190991111",
    "TLE_LINE0": "0 SCOUT X-4 DEB",
    "TLE_LINE1": "1 00724U 63053E   21337.19404381  .00002220  00000-0  50418-3 0  9993",
    "TLE_LINE2": "2 00724  78.5944 152.1112 0382893 269.5913  86.1381 14.19421313779800"
  },
  {
    "CCSDS_OMM_VERS": "2.0",
    "COMMENT": "GENERATED VIA SPACE-TRACK.ORG API",
    "CREATION_DATE": "2021-12-04T07:16:11",
    "ORIGINATOR": "18 SPCS",
    "OBJECT_NAME": "THOR AGENA D R\/B",
    "OBJECT_ID": "1964-001A",
    "CENTER_NAME": "EARTH",
    "REF_FRAME": "TEME",
    "TIME_SYSTEM": "UTC",
    "MEAN_ELEMENT_THEORY": "SGP4",
    "EPOCH": "2021-12-04T04:39:22.917600",
    "MEAN_MOTION": "13.95413274",
    "ECCENTRICITY": "0.00131780",
    "INCLINATION": "69.9063",
    "RA_OF_ASC_NODE": "244.1095",
    "ARG_OF_PERICENTER": "0.8283",
    "MEAN_ANOMALY": "359.2842",
    "EPHEMERIS_TYPE": "0",
    "CLASSIFICATION_TYPE": "U",
    "NORAD_CAT_ID": "727",
    "ELEMENT_SET_NO": "999",
    "REV_AT_EPOCH": "94657",
    "BSTAR": "0.00003115200000",
    "MEAN_MOTION_DOT": "-0.00000011",
    "MEAN_MOTION_DDOT": "0.0000000000000",
    "SEMIMAJOR_AXIS": "7287.859",
    "PERIOD": "103.195",
    "APOAPSIS": "919.328",
    "PERIAPSIS": "900.120",
    "OBJECT_TYPE": "ROCKET BODY",
    "RCS_SIZE": "LARGE",
    "COUNTRY_CODE": "US",
    "LAUNCH_DATE": "1964-01-11",
    "SITE": "AFWTR",
    "DECAY_DATE": null,
    "FILE": "3232114",
    "GP_ID": "191045421",
    "TLE_LINE0": "0 THOR AGENA D R\/B",
    "TLE_LINE1": "1   727U 64001A   21338.19401525 -.00000011  00000-0  31152-4 0  9990",
    "TLE_LINE2": "2   727  69.9063 244.1095 0013178   0.8283 359.2842 13.95413274946570"
  },
  {
    "CCSDS_OMM_VERS": "2.0",
    "COMMENT": "GENERATED VIA SPACE-TRACK.ORG API",
    "CREATION_DATE": "2021-12-03T17:32:05",
    "ORIGINATOR": "18 SPCS",
    "OBJECT_NAME": "GGSE 1 (GGRS)",
    "OBJECT_ID": "1964-001B",
    "CENTER_NAME": "EARTH",
    "REF_FRAME": "TEME",
    "TIME_SYSTEM": "UTC",
    "MEAN_ELEMENT_THEORY": "SGP4",
    "EPOCH": "2021-12-03T13:01:55.293312",
    "MEAN_MOTION": "13.97208219",
    "ECCENTRICITY": "0.00156140",
    "INCLINATION": "69.9057",
    "RA_OF_ASC_NODE": "169.5529",
    "ARG_OF_PERICENTER": "312.2034",
    "MEAN_ANOMALY": "47.7745",
    "EPHEMERIS_TYPE": "0",
    "CLASSIFICATION_TYPE": "U",
    "NORAD_CAT_ID": "728",
    "ELEMENT_SET_NO": "999",
    "REV_AT_EPOCH": "94822",
    "BSTAR": "0.00005253500000",
    "MEAN_MOTION_DOT": "0.00000020",
    "MEAN_MOTION_DDOT": "0.0000000000000",
    "SEMIMAJOR_AXIS": "7281.616",
    "PERIOD": "103.063",
    "APOAPSIS": "914.850",
    "PERIAPSIS": "892.111",
    "OBJECT_TYPE": "PAYLOAD",
    "RCS_SIZE": "MEDIUM",
    "COUNTRY_CODE": "US",
    "LAUNCH_DATE": "1964-01-11",
    "SITE": "AFWTR",
    "DECAY_DATE": null,
    "FILE": "3231740",
    "GP_ID": "190990110",
    "TLE_LINE0": "0 GGSE 1 (GGRS)",
    "TLE_LINE1": "1 00728U 64001B   21337.54300108  .00000020  00000-0  52535-4 0  9991",
    "TLE_LINE2": "2 00728  69.9057 169.5529 0015614 312.2034  47.7745 13.97208219948225"
  }
]
